[{"OBJECT_NAME":"SHIJIAN-6 04B (SJ-6 04B)","OBJECT_ID":"2010-051B","EPOCH":"2026-03-09T23:26:29.179104","MEAN_MOTION":14.99121194,"ECCENTRICITY":0.00088219,"INCLINATION":97.8755,"RA_OF_ASC_NODE":73.3683,"ARG_OF_PERICENTER":293.8275,"MEAN_ANOMALY":66.2023,"EPHEMERIS_TYPE":0,"CLASSIFICATION_TYPE":"U","NORAD_CAT_ID":37180,"ELEMENT_SET_NO":999,"REV_AT_EPOCH":84081,"BSTAR":0.00010220627,"MEAN_MOTION_DOT":1.181e-5,"MEAN_MOTION_DDOT":0},{"OBJECT_NAME":"STARLINK-34027","OBJECT_ID":"2025-098L","EPOCH":"2026-03-09T22:26:25.938816","MEAN_MOTION":14.98334092,"ECCENTRICITY":0.00024299,"INCLINATION":70.0009,"RA_OF_ASC_NODE":273.6539,"ARG_OF_PERICENTER":265.762,"MEAN_ANOMALY":94.3262,"EPHEMERIS_TYPE":0,"CLASSIFICATION_TYPE":"U","NORAD_CAT_ID":63936,"ELEMENT_SET_NO":999,"REV_AT_EPOCH":4659,"BSTAR":0.00014169291,"MEAN_MOTION_DOT":1.598e-5,"MEAN_MOTION_DDOT":0}]
